{
  "norad_id": 44353,
  "name": "FORMOSAT 7-6",
  "history": [
    {
      "epoch": "2026-03-28T20:51:43.104960",
      "apogee_km": 579.3719127370287,
      "perigee_km": 578.2983128005862,
      "latitude_deg": -20.726005899277933,
      "longitude_deg": 138.74789440003224,
      "semi_major_axis_km": 6956.972112768807,
      "eccentricity": 7.716e-05,
      "inclination_deg": 23.9973,
      "raan_deg": 150.9656,
      "arg_perigee_deg": 225.428,
      "mean_anomaly_deg": 134.6158,
      "mean_motion_rev_day": 14.96140462
    }
  ]
}